SL-16 R/B               
1 25407U 98045B   26073.72939229  .00000303  00000+0  17702-3 0  9990
2 25407  71.0120 170.9764 0007062   0.3412 359.7715 14.16192942427818
ISS (ZARYA)             
1 25544U 98067A   26073.80519411  .00010373  00000+0  20105-3 0  9991
2 25544  51.6329  47.0659 0006371 190.9724 169.1126 15.48281436557126
CZ-4B R/B               
1 25732U 99025C   26073.90801289  .00000074  00000+0  56476-4 0  9991
2 25732  98.6615 118.0657 0036470 331.4561 201.8752 14.18266455388902
OKEAN-O                 
1 25860U 99039A   26073.72146145  .00000844  00000+0  11750-3 0  9991
2 25860  97.9431 133.5615 0001098  71.9427 288.1905 14.80345028435132
SL-16 R/B               
1 25861U 99039B   26073.69658855  .00000676  00000+0  92530-4 0  9993
2 25861  97.9955 132.7857 0013645 238.2728 121.7156 14.81739520437605
DELTA 2 R/B             
1 25876U 99041E   26073.60959667  .00001428  00000+0  26804-3 0  9994
2 25876  51.7619 281.6284 0502492   2.9438 357.4267 14.11854461363728
HELIOS 1B               
1 25977U 99064A   26073.95999811  .00002037  00000+0  22990-3 0  9993
2 25977  98.1689 336.3579 0002363  68.2540 291.8927 14.87723281686043
TERRA                   
1 25994U 99068A   26073.91871573  .00000508  00000+0  11258-3 0  9992
2 25994  97.9582 127.1534 0003016 139.8124 273.4935 14.61020961395844
SL-16 R/B               
1 26070U 00006B   26073.46350521 -.00000196  00000+0 -75490-4 0  9991
2 26070  71.0004  87.7988 0016486 183.0564 177.0461 14.15824818349237
TITAN 4B R/B            
1 26474U 00047B   26073.93082897  .00005536  00000+0  34558-3 0  9994
2 26474  67.9904  25.7715 0038712  29.1879 331.1422 15.09620681393700
ENVISAT                 
1 27386U 02009A   26073.89764560  .00000134  00000+0  57296-4 0  9990
2 27386  98.3734  27.3711 0001300  82.8296 344.8385 14.39039034259920
IDEFIX & ARIANE 42P R/B 
1 27422U 02021B   26073.80977364  .00000321  00000+0  13832-3 0  9999
2 27422  98.5873  12.3550 0011873 166.9758 193.1733 14.31030190244758
